STARLINK-34722          
1 64851U 25152K   26119.58861573  .00005483  00000+0  38384-3 0  9999
2 64851  97.5568 335.5978 0002622  90.2258 269.9269 15.05654694 43076
STARLINK-34564          
1 64852U 25152L   26119.83783921  .00004959  00000+0  34760-3 0  9999
2 64852  97.5562 335.8819 0001981  91.5599 268.5854 15.05650016 43111
STARLINK-34676          
1 64853U 25152M   26119.59138514  .00001917  00000+0  13700-3 0  9997
2 64853  97.5570 335.5913 0002437  80.8830 279.2672 15.05648039 43073
STARLINK-34682          
1 64854U 25152N   26119.87660697  .00005283  00000+0  36996-3 0  9993
2 64854  97.5559 335.9877 0001898  84.2077 275.9366 15.05656530 43129
STARLINK-34631          
1 64855U 25152P   26119.84060476  .00002736  00000+0  19367-3 0  9993
2 64855  97.5573 335.8777 0002346  85.8587 274.2908 15.05652490 43110
STARLINK-34578          
1 64856U 25152Q   26119.87106768  .00011066  00000+0  76950-3 0  9999
2 64856  97.5536 335.9989 0002395  89.9181 270.2320 15.05669475 43121
STARLINK-34683          
1 64857U 25152R   26119.56369595  .00003339  00000+0  23544-3 0  9990
2 64857  97.5576 335.6371 0001580  76.9485 283.1918 15.05653939 43074
STARLINK-34654          
1 64858U 25152S   26119.60800516  .00003725  00000+0  26217-3 0  9998
2 64858  97.5562 335.7193 0002114  82.5419 277.6048 15.05653456 43084
STARLINK-34575          
1 64859U 25152T   26119.86831290  .00007208  00000+0  50299-3 0  9997
2 64859  97.5545 335.9941 0002067  71.0070 289.1381 15.05664598 43124
STARLINK-34570          
1 64860U 25152U   26119.59415192  .00002087  00000+0  14879-3 0  9992
2 64860  97.5554 335.6013 0002313  87.0763 273.0728 15.05650893 43077
STARLINK-34651          
1 64861U 25152V   26119.84614932  .00005559  00000+0  38900-3 0  9992
2 64861  97.5570 335.8896 0002171  89.7082 270.4393 15.05660380 43118
STARLINK-34684          
1 64862U 25152W   26119.55538489  .00003878  00000+0  27279-3 0  9992
2 64862  97.5573 335.6515 0001604  87.9222 272.2188 15.05650923 43073
STARLINK-34690          
1 64863U 25152X   26119.87937499  .00010684  00000+0  74308-3 0  9990
2 64863  97.5606 335.9853 0003444  80.0064 280.1551 15.05667290 43124
STARLINK-34628          
1 64864U 25152Y   26119.55815435  .00004645  00000+0  32587-3 0  9994
2 64864  97.5564 335.6411 0001777  85.6520 274.4910 15.05652853 43078
STARLINK-34544          
1 64865U 25152Z   26119.88214523  .00004370  00000+0  30668-3 0  9995
2 64865  97.5574 335.9758 0001609  68.0614 292.0784 15.05672393 43122
O3B MPOWER F9           
1 64866U 25153A   26119.80238632 -.00000025  00000+0  00000+0 0  9993
2 64866   0.0544  15.0345 0005627  48.5361 296.4871  5.00116058 17135
O3B MPOWER F10          
1 64867U 25153B   26119.36850980 -.00000025  00000+0  00000+0 0  9991
2 64867   0.0541  10.1948 0002719 262.8426  86.9314  5.00114954 19599
LIDE                    
1 64869U 25154A   26119.64140660  .00003255  00000+0  31012-3 0  9990
2 64869  97.6744 184.5732 0006197  47.9903 312.1844 14.94051620 41759
TRACERS 1               
1 64870U 25154B   26119.93233736  .00001948  00000+0  19110-3 0  9993
2 64870  97.6718 184.7503 0006752  66.0174 294.1753 14.93331946 41792
ATHENA EPIC             
1 64871U 25154C   26119.91374781  .00002088  00000+0  20132-3 0  9990
2 64871  97.6697 184.8559 0007779  55.4959 304.6995 14.93946598 41806
SKYCRAFT-4B             
1 64872U 25154D   26119.92362140  .00007671  00000+0  67020-3 0  9998
2 64872  97.6690 185.4448 0006228  71.8672 288.3228 14.97044167 41820
TRACERS 2               
1 64873U 25154E   26119.93210891  .00001894  00000+0  18596-3 0  9990
2 64873  97.6720 184.7604 0005328  97.3532 262.8293 14.93333574 41793
PEXT (BARD)             
1 64874U 25154F   26119.92776484  .00003818  00000+0  17963-3 0  9990
2 64874  97.3993 185.8478 0004532  94.9755 265.1998 15.20150655 42517
REAL                    
1 64875U 25154G   26119.94474345  .00025304  00000+0  85362-3 0  9996
2 64875  97.4062 188.3150 0001534 122.8115 237.3274 15.30691230 42665
IONOSFERA-M 3           
1 64876U 25155A   26119.95900125  .00000061  00000+0  47529-4 0  9996
2 64876  98.6000  83.0881 0001818  39.0658 321.0651 14.21477866 39559
IONOSFERA-M 4           
1 64877U 25155B   26119.92352382  .00000057  00000+0  45671-4 0  9991
2 64877  98.5994  82.9713 0001294  52.5606 307.5690 14.21479828 39545
INNOSAT 16 (RS92S7)     
1 64878U 25155C   26119.91137392  .00007617  00000+0  30845-3 0  9998
2 64878  97.4531  87.2239 0010601   7.2793 352.8597 15.24913660 73311
GEOSCAN 6 (RS92S6)      
1 64879U 25155D   26119.90488940  .00012449  00000+0  44130-3 0  9997
2 64879  97.4526  88.3151 0007607   5.6575 354.4750 15.29208207 73388
GEOSCAN 1 (RS92S1)      
1 64880U 25155E   26119.92488294  .00013504  00000+0  47089-3 0  9992
2 64880  97.4523  88.4441 0007544   5.9081 354.2247 15.29727082 73392
239ALFEROV (RS61S)      
1 64881U 25155F   26119.95856526  .00016317  00000+0  53615-3 0  9990
2 64881  97.4525  88.8885 0007084   7.3225 352.8118 15.31613074 73429
2025-155G               
1 64882U 25155G   26119.93226548  .00011199  00000+0  40373-3 0  9994
2 64882  97.4549  88.3435 0007222   7.0547 353.0793 15.28685554 73385
2025-155H               
1 64883U 25155H   26119.93243751  .00011862  00000+0  42720-3 0  9995
2 64883  97.4540  88.3243 0006975   4.6409 355.4894 15.28706116 73384
2025-155J               
1 64884U 25155J   26119.93187854  .00011225  00000+0  40486-3 0  9997
2 64884  97.4535  88.3209 0006943   1.7433 358.3830 15.28673013 73382
2025-155K               
1 64885U 25155K   26119.93908747  .00029699  00000+0  81658-3 0  9990
2 64885  97.4478  89.8090 0005616 357.9768   2.1452 15.37140266 73491
2025-155L               
1 64886U 25155L   26119.91339500  .00034292  00000+0  89286-3 0  9994
2 64886  97.4443  89.9568 0005793   2.7534 357.3742 15.38794562 73501
2025-155M               
1 64887U 25155M   26119.93091095  .00026865  00000+0  76867-3 0  9999
2 64887  97.4479  89.5647 0006141 357.9255   2.1962 15.35913634 73473
2025-155N               
1 64888U 25155N   26119.90348970  .00035489  00000+0  92146-3 0  9994
2 64888  97.4450  89.9959 0005434   1.3185 358.8073 15.38875304 73501
2025-155P               
1 64889U 25155P   26119.95102560  .00005922  00000+0  23265-3 0  9998
2 64889  97.4560  87.8810 0007127   3.6958 356.4331 15.26055469 73354
GEOSCAN 2 (RS92S2)      
1 64890U 25155Q   26119.92729708  .00013606  00000+0  47037-3 0  9997
2 64890  97.4521  88.5797 0006424 354.0325   6.0838 15.30014017 73400
GEOSCAN 5 (RS92S5)      
1 64891U 25155R   26119.95765280  .00016012  00000+0  52099-3 0  9994
2 64891  97.4518  89.0066 0006329  16.8983 343.2468 15.31938838 73434
GEOSCAN 4 (RS92S4)      
1 64892U 25155S   26119.94621636  .00016623  00000+0  53860-3 0  9995
2 64892  97.4521  89.0309 0006335  17.2935 342.8521 15.32065722 73437
GEOSCAN 3 (RS92S3)      
1 64893U 25155T   26119.93912139  .00020397  00000+0  62634-3 0  9998
2 64893  97.4509  89.3260 0006151  20.8820 339.2672 15.33739054 73458
INNOSAT 3 (RS92S0)      
1 64894U 25155U   26119.90570097  .00040707  00000+0  10014-2 0  9990
2 64894  97.4470  90.3807 0005420  31.4051 328.7518 15.40496189 73524
2025-155V               
1 64895U 25155V   26119.93199982  .00011021  00000+0  39737-3 0  9995
2 64895  97.4545  88.3291 0007009   6.0981 354.0342 15.28686987 73370
SKYCRAFT-4C             
1 64896U 25154H   26119.96339677  .00002996  00000+0  27892-3 0  9995
2 64896  97.6715 185.1360 0006549  68.7810 291.4109 14.95018254191947
SKYCRAFT-4A             
1 64897U 25154J   26119.68615353  .00006304  00000+0  56586-3 0  9992
2 64897  97.6739 185.0660 0006496  74.1049 286.0888 14.96057151 40130
SKYKRAFT-4D             
1 64898U 25154K   26119.74847935  .00006168  00000+0  55926-3 0  9998
2 64898  97.6711 184.9092 0005881  68.7555 291.4294 14.95672961 40059
MICROCARB               
1 64899U 25156A   26119.76087636  .00000641  00000+0  10920-3 0  9992
2 64899  97.9835 197.7623 0017652  69.3091 291.0007 14.72273782 40841
CO3D 3                  
1 64900U 25156B   26118.55724756  .00004079  00000+0  19143-3 0  9997
2 64900  97.4329 197.9633 0001048  49.5521 310.5805 15.20201512 41996
CO3D 4                  
1 64901U 25156C   26118.49158032  .00002003  00000+0  95596-4 0  9991
2 64901  97.4326 197.8981 0002016 101.4971 258.6491 15.20211498 41988
CO3D 2                  
1 64902U 25156D   26118.58987872  .00004362  00000+0  20458-3 0  9998
2 64902  97.4327 197.8942 0000590  63.5253 296.6042 15.20192497 41995
CO3D 1                  
1 64903U 25156E   26103.64843334  .00003151  00000+0  12932-3 0  9997
2 64903  98.0928 182.3847 0110033   5.8142 354.4339 15.19681462 39726
STARLINK-34647          
1 64904U 25157A   26119.26678672  .00013558  00000+0  46907-3 0  9996
2 64904  53.1565 111.0050 0000882  50.9544 309.1535 15.30198189 43854
STARLINK-34273          
1 64905U 25157B   26119.25623307  .00026693  00000+0  91006-3 0  9995
2 64905  53.1581 110.9397 0001149  85.6890 274.4242 15.30202565 43876
STARLINK-34713          
1 64906U 25157C   26119.95886921  .00025499  00000+0  86989-3 0  9993
2 64906  53.1602 107.5052 0001560  96.9541 263.1638 15.30207670 43928
STARLINK-34712          
1 64907U 25157D   26119.91668981  .00062659  00000+0  18524-2 0  9992
2 64907  53.1576 107.2691 0000453  76.7941 269.5806 15.34362647  5896
STARLINK-34702          
1 64908U 25157E   26119.36364681  .00015248  00000+0  52577-3 0  9991
2 64908  53.1590 110.1865 0001216  89.4653 270.6488 15.30206603 43883
STARLINK-34687          
1 64909U 25157F   26119.38052982  .00023458  00000+0  80170-3 0  9994
2 64909  53.1580 110.2913 0000415  78.4206 281.6841 15.30196690 43834
STARLINK-34642          
1 64910U 25157G   26119.91668981  .00048832  00000+0  15760-2 0  9992
2 64910  53.1580 107.4378 0002004  82.0232 179.2919 15.31680835  5897
